NORAD_CAT_ID,OBJECT_NAME,OBJECT_TYPE,EPOCH,MEAN_MOTION,ECCENTRICITY,INCLINATION,RA_OF_ASC_NODE,ARG_OF_PERICENTER,MEAN_ANOMALY,BSTAR,MEAN_MOTION_DOT,MEAN_MOTION_DDOT,TLE_LINE0,TLE_LINE1,TLE_LINE2,SEMIMAJOR_AXIS,PERIOD,APOGEE,PERIGEE,DECAYED
55933.0,STARLINK-5852,PAYLOAD,2023-10-08 10:15:19,14.98576834,0.0003044,70.0011,351.5737,263.6748,96.4064,-0.003822,-0.00045691,0.0,0 STARLINK-5852,1 55933U 23037V   23281.42730348 -.00045691  00000-0 -38220-2 0  9991,2 55933  70.0011 351.5737 0003044 263.6748  96.4064 14.98576834 32014,6949.43,96.091,573.41,569.179,0.0
55933.0,STARLINK-5852,PAYLOAD,2023-10-08 13:27:33,14.98572249,0.0003147,70.0013,351.238,265.7277,94.3523,-0.0036764,-0.0004396,0.0,0 STARLINK-5852,1 55933U 23037V   23281.56080277 -.00043960  00000-0 -36764-2 0  9993,2 55933  70.0013 351.2380 0003147 265.7277  94.3523 14.98572249 31697,6949.444,96.091,573.496,569.122,0.0
55933.0,STARLINK-5852,PAYLOAD,2023-10-08 18:15:56,14.98536577,0.0002957,70.0014,350.733,267.0396,93.0425,-0.0031548,-0.00037735,0.0,0 STARLINK-5852,1 55933U 23037V   23281.76106686 -.00037735  00000-0 -31548-2 0  9996,2 55933  70.0014 350.7330 0002957 267.0396  93.0425 14.98536577 31727,6949.554,96.094,573.474,569.364,0.0
55933.0,STARLINK-5852,PAYLOAD,2023-10-08 21:28:12,14.98505942,0.0003972,70.0024,350.3956,264.2557,95.8149,-0.0030228,-0.00036142,0.0,0 STARLINK-5852,1 55933U 23037V   23281.89458513 -.00036142  00000-0 -30228-2 0  9994,2 55933  70.0024 350.3956 0003972 264.2557  95.8149 14.98505942 32089,6949.649,96.096,574.274,568.753,0.0
55933.0,STARLINK-5852,PAYLOAD,2023-10-09 14:00:01,14.9832954,0.0003146,70.0028,348.6589,275.3642,198.722,-0.0014922,-0.00017852,0.0,0 STARLINK-5852,1 55933U 23037V   23282.58334491 -.00017852  00000-0 -14922-2 0  9999,2 55933  70.0028 348.6589 0003146 275.3642 198.7220 14.98329540 32188,6950.194,96.107,574.246,569.873,0.0
55933.0,STARLINK-5852,PAYLOAD,2023-10-09 22:00:00,14.98311462,0.0003084,70.0026,347.8185,272.1693,199.3896,0.00082658,9.779e-05,0.0,0 STARLINK-5852,1 55933U 23037V   23282.91667824  .00009779  00000-0  82658-3 0  9994,2 55933  70.0026 347.8185 0003084 272.1693 199.3896 14.98311462  5732,6950.25,96.108,574.259,569.972,0.0
55933.0,STARLINK-5852,PAYLOAD,2023-10-10 00:00:00,14.98287185,0.0003117,70.0026,347.6084,270.8443,290.0877,0.0059648,0.00071732,0.0,0 STARLINK-5852,1 55933U 23037V   23283.00001157  .00071732  00000-0  59648-2 0  9996,2 55933  70.0026 347.6084 0003117 270.8443 290.0877 14.98287185 32252,6950.325,96.11,574.357,570.024,0.0
55933.0,STARLINK-5852,PAYLOAD,2023-10-10 10:19:19,14.98334129,0.0002944,70.0012,346.5253,264.3198,95.7625,1.7411e-05,1.15e-06,0.0,0 STARLINK-5852,1 55933U 23037V   23283.43008290  .00000115  00000-0  17411-4 0  9999,2 55933  70.0012 346.5253 0002944 264.3198  95.7625 14.98334129 32314,6950.18,96.107,574.091,569.999,0.0
55933.0,STARLINK-5852,PAYLOAD,2023-10-10 13:31:34,14.98339825,0.0002895,70.0012,346.1884,264.0156,96.0673,8.1305e-05,8.78e-06,0.0,0 STARLINK-5852,1 55933U 23037V   23283.56359681  .00000878  00000-0  81305-4 0  9995,2 55933  70.0012 346.1884 0002895 264.0156  96.0673 14.98339825 31994,6950.163,96.106,574.04,570.015,0.0
55933.0,STARLINK-5852,PAYLOAD,2023-10-11 10:21:20,14.98331181,0.0002897,70.001,343.9984,266.4269,93.6559,-2.5763e-05,-4e-06,0.0,0 STARLINK-5852,1 55933U 23037V   23284.43148591 -.00000400  00000-0 -25763-4 0  9997,2 55933  70.0010 343.9984 0002897 266.4269  93.6559 14.98331181 32467,6950.189,96.107,574.068,570.041,0.0
55933.0,STARLINK-5852,PAYLOAD,2023-10-11 13:33:37,14.98323404,0.0002863,70.0014,343.662,266.3407,93.7425,-5.6949e-05,-7.72e-06,0.0,0 STARLINK-5852,1 55933U 23037V   23284.56501161 -.00000772  00000-0 -56949-4 0  9999,2 55933  70.0014 343.6620 0002863 266.3407  93.7425 14.98323404 32148,6950.213,96.107,574.068,570.088,0.0
55933.0,STARLINK-5852,PAYLOAD,2023-10-12 03:58:49,14.98328569,0.0002724,70.0014,342.1482,263.5045,96.5804,-1.7967e-05,-3.07e-06,0.0,0 STARLINK-5852,1 55933U 23037V   23285.16584782 -.00000307  00000-0 -17967-4 0  9997,2 55933  70.0014 342.1482 0002724 263.5045  96.5804 14.98328569 32577,6950.197,96.107,573.956,570.169,0.0
55933.0,STARLINK-5852,PAYLOAD,2023-10-12 13:35:37,14.98332827,0.0002672,70.0015,341.1384,263.5021,96.5834,2.6956e-05,2.29e-06,0.0,0 STARLINK-5852,1 55933U 23037V   23285.56640361  .00000229  00000-0  26956-4 0  9996,2 55933  70.0015 341.1384 0002672 263.5021  96.5834 14.98332827 32298,6950.184,96.107,573.906,570.192,0.0
55933.0,STARLINK-5852,PAYLOAD,2023-10-13 04:00:48,14.98343355,0.0001974,70.0016,339.6229,264.2117,95.8817,0.00052066,6.127e-05,0.0,0 STARLINK-5852,1 55933U 23037V   23286.16722480  .00006127  00000-0  52066-3 0  9999,2 55933  70.0016 339.6229 0001974 264.2117  95.8817 14.98343355 32726,6950.152,96.106,573.389,570.645,0.0
55933.0,STARLINK-5852,PAYLOAD,2023-10-13 12:01:30,14.98327818,0.0002926,70.001,338.7816,272.2941,87.7883,0.00015639,1.773e-05,0.0,0 STARLINK-5852,1 55933U 23037V   23286.50104415  .00001773  00000-0  15639-3 0  9996,2 55933  70.0010 338.7816 0002926 272.2941  87.7883 14.98327818 32778,6950.2,96.107,574.098,570.031,0.0
55933.0,STARLINK-5852,PAYLOAD,2023-10-13 13:37:38,14.98329551,0.0002913,70.001,338.6132,272.105,87.9776,0.00014697,1.661e-05,0.0,0 STARLINK-5852,1 55933U 23037V   23286.56780336  .00001661  00000-0  14697-3 0  9993,2 55933  70.0010 338.6132 0002913 272.1050  87.9776 14.98329551 32447,6950.194,96.107,574.084,570.035,0.0
55933.0,STARLINK-5852,PAYLOAD,2023-10-14 10:27:22,14.98337676,0.0002836,70.0005,336.4254,264.4375,95.6461,7.7787e-05,8.35e-06,0.0,0 STARLINK-5852,1 55933U 23037V   23287.43567750  .00000835  00000-0  77787-4 0  9995,2 55933  70.0005 336.4254 0002836 264.4375  95.6461 14.98337676 32916,6950.169,96.107,574.005,570.063,0.0
55933.0,STARLINK-5852,PAYLOAD,2023-10-14 13:39:38,14.98339577,0.0002916,70.0004,336.0887,267.6599,92.4226,6.5574e-05,6.9e-06,0.0,0 STARLINK-5852,1 55933U 23037V   23287.56919590  .00000690  00000-0  65574-4 0  9992,2 55933  70.0004 336.0887 0002916 267.6599  92.4226 14.98339577 32595,6950.163,96.106,574.055,570.002,0.0
55933.0,STARLINK-5852,PAYLOAD,2023-10-14 20:04:11,14.98334876,0.0002471,70.0024,335.415,267.6204,92.4672,-0.00017798,-2.216e-05,0.0,0 STARLINK-5852,1 55933U 23037V   23287.83624520 -.00002216  00000-0 -17798-3 0  9990,2 55933  70.0024 335.4150 0002471 267.6204  92.4672 14.98334876 32976,6950.178,96.107,573.76,570.325,0.0
55933.0,STARLINK-5852,PAYLOAD,2023-10-15 04:04:52,14.98320623,0.0002136,70.0029,334.5744,254.9513,105.141,-3.0027e-05,-4.51e-06,0.0,0 STARLINK-5852,1 55933U 23037V   23288.17005147 -.00000451  00000-0 -30027-4 0  9996,2 55933  70.0029 334.5744 0002136 254.9513 105.1410 14.98320623 33024,6950.222,96.108,573.571,570.602,0.0
55933.0,STARLINK-5852,PAYLOAD,2023-10-15 13:41:41,14.98315638,0.0002419,70.0013,333.5637,264.5947,95.4936,-0.00011589,-1.475e-05,0.0,0 STARLINK-5852,1 55933U 23037V   23288.57061965 -.00001475  00000-0 -11589-3 0  9998,2 55933  70.0013 333.5637 0002419 264.5947  95.4936 14.98315638 32741,6950.237,96.108,573.784,570.421,0.0
55933.0,STARLINK-5852,PAYLOAD,2023-10-15 20:06:13,14.98323544,0.0002701,70.0011,332.8913,265.4296,94.6555,-0.00010207,-1.31e-05,0.0,0 STARLINK-5852,1 55933U 23037V   23288.83765459 -.00001310  00000-0 -10207-3 0  9990,2 55933  70.0011 332.8913 0002701 265.4296  94.6555 14.98323544 32786,6950.213,96.107,573.955,570.201,0.0
55933.0,STARLINK-5852,PAYLOAD,2023-10-16 08:55:17,14.98331714,0.0002996,70.0,331.5439,269.6076,90.4739,3.9981e-05,3.84e-06,0.0,0 STARLINK-5852,1 55933U 23037V   23289.37172541  .00000384  00000-0  39981-4 0  9993,2 55933  70.0000 331.5439 0002996 269.6076  90.4739 14.98331714 33205,6950.188,96.107,574.135,569.97,0.0
55933.0,STARLINK-5852,PAYLOAD,2023-10-16 13:43:41,14.98334928,0.0002804,69.9999,331.0386,267.4694,92.6144,3.1161e-05,2.79e-06,0.0,0 STARLINK-5852,1 55933U 23037V   23289.57200340  .00000279  00000-0  31161-4 0  9999,2 55933  69.9999 331.0386 0002804 267.4694  92.6144 14.98334928 32893,6950.178,96.107,573.991,570.094,0.0
55933.0,STARLINK-5852,PAYLOAD,2023-10-17 12:09:33,14.9833017,0.0002864,69.9994,328.6811,267.5777,92.5054,0.00019368,2.219e-05,0.0,0 STARLINK-5852,1 55933U 23037V   23290.50664245  .00002219  00000-0  19368-3 0  9992,2 55933  69.9994 328.6811 0002864 267.5777  92.5054 14.98330170 33370,6950.192,96.107,574.048,570.067,0.0
55933.0,STARLINK-5852,PAYLOAD,2023-10-18 02:34:46,14.98332918,0.0002801,69.9995,327.1667,268.9937,91.0902,1.4844e-05,8.4e-07,0.0,0 STARLINK-5852,1 55933U 23037V   23291.10748558  .00000084  00000-0  14844-4 0  9992,2 55933  69.9995 327.1667 0002801 268.9937  91.0902 14.98332918 33129,6950.184,96.107,573.996,570.102,0.0
55933.0,STARLINK-5852,PAYLOAD,2023-10-18 12:11:35,14.98332753,0.0002775,69.9994,326.1556,265.6319,94.4522,6.8856e-06,-1.1e-07,0.0,0 STARLINK-5852,1 55933U 23037V   23291.50804477 -.00000011  00000-0  68856-5 0  9993,2 55933  69.9994 326.1556 0002775 265.6319  94.4522 14.98332753 33528,6950.184,96.107,573.978,570.121,0.0
55933.0,STARLINK-5852,PAYLOAD,2023-10-18 20:12:15,14.98341199,0.0002809,69.9996,325.3139,269.6151,90.4686,-0.00014434,-1.815e-05,0.0,0 STARLINK-5852,1 55933U 23037V   23291.84184187 -.00001815  00000-0 -14434-3 0  9994,2 55933  69.9996 325.3139 0002809 269.6151  90.4686 14.98341199 33233,6950.158,96.106,573.976,570.071,0.0
55933.0,STARLINK-5852,PAYLOAD,2023-10-19 12:13:35,14.98339101,0.0002888,69.9993,323.6305,268.9661,91.1167,2.1468e-05,1.63e-06,0.0,0 STARLINK-5852,1 55933U 23037V   23292.50943670  .00000163  00000-0  21468-4 0  9997,2 55933  69.9993 323.6305 0002888 268.9661  91.1167 14.98339101 33671,6950.165,96.106,574.037,570.023,0.0
55933.0,STARLINK-5852,PAYLOAD,2023-10-20 04:14:56,14.98327987,0.0002878,69.9994,321.9472,268.9463,91.1366,-3.5993e-05,-5.22e-06,0.0,0 STARLINK-5852,1 55933U 23037V   23293.17704409 -.00000522  00000-0 -35993-4 0  9995,2 55933  69.9994 321.9472 0002878 268.9463  91.1366 14.98327987 33778,6950.199,96.107,574.064,570.064,0.0
